[{"OBJECT_NAME":"YAOGAN-36 04C","OBJECT_ID":"2022-171E","EPOCH":"2026-03-09T18:55:44.889600","MEAN_MOTION":15.29852307,"ECCENTRICITY":0.00066848,"INCLINATION":34.9797,"RA_OF_ASC_NODE":96.6578,"ARG_OF_PERICENTER":275.3761,"MEAN_ANOMALY":84.6192,"EPHEMERIS_TYPE":0,"CLASSIFICATION_TYPE":"U","NORAD_CAT_ID":54750,"ELEMENT_SET_NO":999,"REV_AT_EPOCH":18024,"BSTAR":0.00054591902,"MEAN_MOTION_DOT":0.00016196,"MEAN_MOTION_DDOT":0},{"OBJECT_NAME":"STARLINK-31701","OBJECT_ID":"2024-076U","EPOCH":"2026-03-09T05:46:27.549696","MEAN_MOTION":15.27682506,"ECCENTRICITY":0.00011889,"INCLINATION":43.0036,"RA_OF_ASC_NODE":11.5643,"ARG_OF_PERICENTER":283.6526,"MEAN_ANOMALY":76.4193,"EPHEMERIS_TYPE":0,"CLASSIFICATION_TYPE":"U","NORAD_CAT_ID":59582,"ELEMENT_SET_NO":999,"REV_AT_EPOCH":10634,"BSTAR":0.0018222761,"MEAN_MOTION_DOT":0.00050384,"MEAN_MOTION_DDOT":0}]
